{"type": "FeatureCollection", "features": [ {"type": "Feature", "properties": {"norad_id": 30134, "name": "FENGYUN 1C DEB", "group": "fengyun-1c-debris", "lat": -59.89827969915316, "lon": 12.736795235194036, "alt_km": 855.3365492711819, "timestamp": "2025-12-04T03:47:54.817414+00:00", "meta": {"OBJECT_NAME": "FENGYUN 1C DEB", "OBJECT_ID": "1999-025SP", "EPOCH": "2025-12-03T13:25:02.853120", "MEAN_MOTION": 14.13322011, "ECCENTRICITY": 0.0018566, "INCLINATION": 98.6943, "RA_OF_ASC_NODE": 356.8501, "ARG_OF_PERICENTER": 209.6884, "MEAN_ANOMALY": 282.0286, "EPHEMERIS_TYPE": 0, "CLASSIFICATION_TYPE": "U", "NORAD_CAT_ID": 30134, "ELEMENT_SET_NO": 999, "REV_AT_EPOCH": 97116, "BSTAR": 0.00064502, "MEAN_MOTION_DOT": 1.169e-05, "MEAN_MOTION_DDOT": 0}, "tle": {"line1": "1 30134U 99025SP  25337.55906080  .00001169  00000+0  64502-3 0  9995", "line2": "2 30134  98.6943 356.8501 0018566 209.6884 282.0286 14.13322011971163"}}, "geometry": {"type": "Point", "coordinates": [12.736795235194036, -59.89827969915316]}}, {"type": "Feature", "properties": {"norad_id": 30136, "name": "FENGYUN 1C DEB", "group": "fengyun-1c-debris", "lat": 30.782541316593658, "lon": 56.77697524357857, "alt_km": 854.2709959810109, "timestamp": "2025-12-04T03:47:54.817424+00:00", "meta": {"OBJECT_NAME": "FENGYUN 1C DEB", "OBJECT_ID": "1999-025SR", "EPOCH": "2025-12-02T05:15:04.555008", "MEAN_MOTION": 13.95304029, "ECCENTRICITY": 0.0129263, "INCLINATION": 98.5563, "RA_OF_ASC_NODE": 229.831, "ARG_OF_PERICENTER": 98.5456, "MEAN_ANOMALY": 32.2114, "EPHEMERIS_TYPE": 0, "CLASSIFICATION_TYPE": "U", "NORAD_CAT_ID": 30136, "ELEMENT_SET_NO": 999, "REV_AT_EPOCH": 95944, "BSTAR": 0.00046682, "MEAN_MOTION_DOT": 6.39e-06, "MEAN_MOTION_DDOT": 0}, "tle": {"line1": "1 30136U 99025SR  25336.21880272  .00000639  00000+0  46682-3 0  9993", "line2": "2 30136  98.5563 229.8310 0129263  98.5456  32.2114 13.95304029959446"}}, "geometry": {"type": "Point", "coordinates": [56.77697524357857, 30.782541316593658]}}, {"type": "Feature", "properties": {"norad_id": 30138, "name": "FENGYUN 1C DEB", "group": "fengyun-1c-debris", "lat": -14.923363254671584, "lon": -150.84673472259612, "alt_km": 817.8042273593137, "timestamp": "2025-12-04T03:47:54.817434+00:00", "meta": {"OBJECT_NAME": "FENGYUN 1C DEB", "OBJECT_ID": "1999-025ST", "EPOCH": "2025-12-03T17:20:32.697024", "MEAN_MOTION": 14.19976384, "ECCENTRICITY": 0.0020313, "INCLINATION": 98.7604, "RA_OF_ASC_NODE": 31.0774, "ARG_OF_PERICENTER": 163.0582, "MEAN_ANOMALY": 325.9312, "EPHEMERIS_TYPE": 0, "CLASSIFICATION_TYPE": "U", "NORAD_CAT_ID": 30138, "ELEMENT_SET_NO": 999, "REV_AT_EPOCH": 97273, "BSTAR": 0.0012795, "MEAN_MOTION_DOT": 2.682e-05, "MEAN_MOTION_DDOT": 0}, "tle": {"line1": "1 30138U 99025ST  25337.72260066  .00002682  00000+0  12795-2 0  9992", "line2": "2 30138  98.7604  31.0774 0020313 163.0582 325.9312 14.19976384972732"}}, "geometry": {"type": "Point", "coordinates": [-150.84673472259612, -14.923363254671584]}}, {"type": "Feature", "properties": {"norad_id": 30139, "name": "FENGYUN 1C DEB", "group": "fengyun-1c-debris", "lat": 1.8038930716352823, "lon": 2.688795131217896, "alt_km": 953.0676678013879, "timestamp": "2025-12-04T03:47:54.817454+00:00", "meta": {"OBJECT_NAME": "FENGYUN 1C DEB", "OBJECT_ID": "1999-025SU", "EPOCH": "2025-11-30T13:42:33.077088", "MEAN_MOTION": 14.03581873, "ECCENTRICITY": 0.0131774, "INCLINATION": 98.3658, "RA_OF_ASC_NODE": 179.1214, "ARG_OF_PERICENTER": 324.9204, "MEAN_ANOMALY": 99.2292, "EPHEMERIS_TYPE": 0, "CLASSIFICATION_TYPE": "U", "NORAD_CAT_ID": 30139, "ELEMENT_SET_NO": 999, "REV_AT_EPOCH": 96079, "BSTAR": 0.0011579, "MEAN_MOTION_DOT": 1.922e-05, "MEAN_MOTION_DDOT": 0}, "tle": {"line1": "1 30139U 99025SU  25334.57121617  .00001922  00000+0  11579-2 0  9996", "line2": "2 30139  98.3658 179.1214 0131774 324.9204  99.2292 14.03581873960793"}}, "geometry": {"type": "Point", "coordinates": [2.688795131217896, 1.8038930716352823]}}, {"type": "Feature", "properties": {"norad_id": 30140, "name": "FENGYUN 1C DEB", "group": "fengyun-1c-debris", "lat": -12.003706115078629, "lon": 42.9353812293644, "alt_km": 798.9577317828107, "timestamp": "2025-12-04T03:47:54.817467+00:00", "meta": {"OBJECT_NAME": "FENGYUN 1C DEB", "OBJECT_ID": "1999-025SV", "EPOCH": "2025-12-02T22:15:25.230240", "MEAN_MOTION": 14.20661365, "ECCENTRICITY": 0.00405153, "INCLINATION": 98.8281, "RA_OF_ASC_NODE": 39.8128, "ARG_OF_PERICENTER": 338.7355, "MEAN_ANOMALY": 197.3654, "EPHEMERIS_TYPE": 0, "CLASSIFICATION_TYPE": "U", "NORAD_CAT_ID": 30140, "ELEMENT_SET_NO": 999, "REV_AT_EPOCH": 97004, "BSTAR": 0.0017220317, "MEAN_MOTION_DOT": 3.696e-05, "MEAN_MOTION_DDOT": 0}, "tle": {"line1": "1 30140U 99025SV  25336.92737535  .00003696  00000+0  17220-2 0  9990", "line2": "2 30140  98.8281  39.8128 0040515 338.7355 197.3654 14.20661365970045"}}, "geometry": {"type": "Point", "coordinates": [42.9353812293644, -12.003706115078629]}}, {"type": "Feature", "properties": {"norad_id": 30141, "name": "FENGYUN 1C DEB", "group": "fengyun-1c-debris", "lat": 3.623241701278329, "lon": 79.88831776413741, "alt_km": 730.3094118179079, "timestamp": "2025-12-04T03:47:54.817477+00:00", "meta": {"OBJECT_NAME": "FENGYUN 1C DEB", "OBJECT_ID": "1999-025SW", "EPOCH": "2025-12-03T12:05:54.876768", "MEAN_MOTION": 14.51234125, "ECCENTRICITY": 0.0019018, "INCLINATION": 99.0139, "RA_OF_ASC_NODE": 258.6117, "ARG_OF_PERICENTER": 60.3089, "MEAN_ANOMALY": 299.9994, "EPHEMERIS_TYPE": 0, "CLASSIFICATION_TYPE": "U", "NORAD_CAT_ID": 30141, "ELEMENT_SET_NO": 999, "REV_AT_EPOCH": 98110, "BSTAR": 0.0038692, "MEAN_MOTION_DOT": 0.00015398, "MEAN_MOTION_DDOT": 0}, "tle": {"line1": "1 30141U 99025SW  25337.50410737  .00015398  00000+0  38692-2 0  9996", "line2": "2 30141  99.0139 258.6117 0019018  60.3089 299.9994 14.51234125981105"}}, "geometry": {"type": "Point", "coordinates": [79.88831776413741, 3.623241701278329]}}, {"type": "Feature", "properties": {"norad_id": 30142, "name": "FENGYUN 1C DEB", "group": "fengyun-1c-debris", "lat": -30.45758070502514, "lon": -131.62377901824735, "alt_km": 901.870178886019, "timestamp": "2025-12-04T03:47:54.817487+00:00", "meta": {"OBJECT_NAME": "FENGYUN 1C DEB", "OBJECT_ID": "1999-025SX", "EPOCH": "2025-12-03T11:28:19.022016", "MEAN_MOTION": 14.1039561, "ECCENTRICITY": 0.0100794, "INCLINATION": 99.1301, "RA_OF_ASC_NODE": 53.112, "ARG_OF_PERICENTER": 334.5483, "MEAN_ANOMALY": 25.0742, "EPHEMERIS_TYPE": 0, "CLASSIFICATION_TYPE": "U", "NORAD_CAT_ID": 30142, "ELEMENT_SET_NO": 999, "REV_AT_EPOCH": 96168, "BSTAR": 0.0020773, "MEAN_MOTION_DOT": 3.825e-05, "MEAN_MOTION_DDOT": 0}, "tle": {"line1": "1 30142U 99025SX  25337.47799794  .00003825  00000+0  20773-2 0  9999", "line2": "2 30142  99.1301  53.1120 0100794 334.5483  25.0742 14.10395610961688"}}, "geometry": {"type": "Point", "coordinates": [-131.62377901824735, -30.45758070502514]}}, {"type": "Feature", "properties": {"norad_id": 30143, "name": "FENGYUN 1C DEB", "group": "fengyun-1c-debris", "lat": 26.736861563061016, "lon": 157.35215882511815, "alt_km": 860.4020131394309, "timestamp": "2025-12-04T03:47:54.817497+00:00", "meta": {"OBJECT_NAME": "FENGYUN 1C DEB", "OBJECT_ID": "1999-025SY", "EPOCH": "2025-12-03T10:41:18.333312", "MEAN_MOTION": 14.02525291, "ECCENTRICITY": 0.0104031, "INCLINATION": 98.7341, "RA_OF_ASC_NODE": 161.11, "ARG_OF_PERICENTER": 316.766, "MEAN_ANOMALY": 71.6555, "EPHEMERIS_TYPE": 0, "CLASSIFICATION_TYPE": "U", "NORAD_CAT_ID": 30143, "ELEMENT_SET_NO": 999, "REV_AT_EPOCH": 96089, "BSTAR": 0.0017948, "MEAN_MOTION_DOT": 2.855e-05, "MEAN_MOTION_DDOT": 0}, "tle": {"line1": "1 30143U 99025SY  25337.44535108  .00002855  00000+0  17948-2 0  9996", "line2": "2 30143  98.7341 161.1100 0104031 316.7660  71.6555 14.02525291960895"}}, "geometry": {"type": "Point", "coordinates": [157.35215882511815, 26.736861563061016]}}, {"type": "Feature", "properties": {"norad_id": 30144, "name": "FENGYUN 1C DEB", "group": "fengyun-1c-debris", "lat": 47.11526721359178, "lon": -38.65399181782321, "alt_km": 922.7498054532562, "timestamp": "2025-12-04T03:47:54.817508+00:00", "meta": {"OBJECT_NAME": "FENGYUN 1C DEB", "OBJECT_ID": "1999-025SZ", "EPOCH": "2025-12-02T12:29:39.543648", "MEAN_MOTION": 13.91793061, "ECCENTRICITY": 0.01260725, "INCLINATION": 99.0097, "RA_OF_ASC_NODE": 329.5909, "ARG_OF_PERICENTER": 318.8143, "MEAN_ANOMALY": 166.6543, "EPHEMERIS_TYPE": 0, "CLASSIFICATION_TYPE": "U", "NORAD_CAT_ID": 30144, "ELEMENT_SET_NO": 999, "REV_AT_EPOCH": 95698, "BSTAR": 0.00077423743, "MEAN_MOTION_DOT": 1.007e-05, "MEAN_MOTION_DDOT": 0}, "tle": {"line1": "1 30144U 99025SZ  25336.52059657  .00001007  00000+0  77424-3 0  9999", "line2": "2 30144  99.0097 329.5909 0126072 318.8143 166.6543 13.91793061956989"}}, "geometry": {"type": "Point", "coordinates": [-38.65399181782321, 47.11526721359178]}}, {"type": "Feature", "properties": {"norad_id": 30145, "name": "FENGYUN 1C DEB", "group": "fengyun-1c-debris", "lat": 21.63874178768618, "lon": -88.86372208975217, "alt_km": 781.0257571095317, "timestamp": "2025-12-04T03:47:54.817521+00:00", "meta": {"OBJECT_NAME": "FENGYUN 1C DEB", "OBJECT_ID": "1999-025TA", "EPOCH": "2025-12-03T19:10:07.033728", "MEAN_MOTION": 14.13847881, "ECCENTRICITY": 0.0092603, "INCLINATION": 99.2709, "RA_OF_ASC_NODE": 87.0483, "ARG_OF_PERICENTER": 173.1656, "MEAN_ANOMALY": 315.8378, "EPHEMERIS_TYPE": 0, "CLASSIFICATION_TYPE": "U", "NORAD_CAT_ID": 30145, "ELEMENT_SET_NO": 999, "REV_AT_EPOCH": 96069, "BSTAR": 0.0049121, "MEAN_MOTION_DOT": 9.66e-05, "MEAN_MOTION_DDOT": 0}, "tle": {"line1": "1 30145U 99025TA  25337.79869252  .00009660  00000+0  49121-2 0  9995", "line2": "2 30145  99.2709  87.0483 0092603 173.1656 315.8378 14.13847881960690"}}, "geometry": {"type": "Point", "coordinates": [-88.86372208975217, 21.63874178768618]}}]}